STARLINK-36475          
1 67350U 26003S   26019.91668981 -.01598003  00000+0 -70770-2 0  9998
2 67350  42.9986 148.9900 0001540 279.1743 334.3770 15.86223575  2828
STARLINK-36478          
1 67351U 26003T   26019.91668981 -.01599793  00000+0 -70820-2 0  9992
2 67351  42.9985 148.9850 0001400 276.9795 338.5762 15.86236889  2828
STARLINK-36479          
1 67352U 26003U   26019.91668981 -.01606841  00000+0 -71123-2 0  9993
2 67352  42.9987 148.9798 0001477 275.5497 342.0794 15.86251590  2832
STARLINK-36474          
1 67353U 26003V   26019.91668981 -.01611453  00000+0 -71358-2 0  9999
2 67353  42.9984 148.9741 0001400 270.9566 349.0769 15.86252008  2834
STARLINK-36448          
1 67354U 26003W   26019.91668981 -.01633638  00000+0 -72417-2 0  9996
2 67354  42.9987 148.9566 0001621 271.9485 354.8422 15.86268397  2837
STARLINK-36477          
1 67355U 26003X   26019.91668981 -.01621128  00000+0 -71878-2 0  9998
2 67355  42.9986 148.9675 0001620 276.1045 346.5273 15.86241295  2825
STARLINK-36429          
1 67356U 26003Y   26019.91668981 -.01628379  00000+0 -72212-2 0  9997
2 67356  42.9988 148.9620 0001585 278.2768 346.4769 15.86251575  2824
STARLINK-36456          
1 67357U 26003Z   26019.91668981 -.01648406  00000+0 -73156-2 0  9999
2 67357  42.9987 148.9505 0001612 277.8653 351.3183 15.86272422  2835
STARLINK-36466          
1 67358U 26003AA  26019.91668981 -.01652756  00000+0 -73429-2 0  9996
2 67358  42.9987 148.9438 0001561 275.6298 356.1384 15.86259068  2832
STARLINK-36499          
1 67359U 26003AB  26019.91668981 -.01659891  00000+0 -73744-2 0  9994
2 67359  42.9987 148.9383 0001656 276.4382 357.4646 15.86271610  2832
STARLINK-36469          
1 67360U 26003AC  26019.91668981 -.01668068  00000+0 -74195-2 0  9993
2 67360  42.9987 148.9319 0001655 275.9813   0.4647 15.86262968  2837
STARLINK-35306          
1 67361U 26003AD  26019.91668981 -.01680512  00000+0 -74764-2 0  9994
2 67361  42.9984 148.9264 0001608 274.2994   4.2166 15.86282485  2771
STARLINK-36428          
1 67362U 26003AE  26019.91668981 -.01678231  00000+0 -74678-2 0  9994
2 67362  42.9985 148.9199 0001685 275.0636   5.8927 15.86272851  2832
SHIJIAN-29B (SJ-29B)    
1 67403U 25315C   26019.95205715 -.00000054  00000+0  00000+0 0  9996
2 67403   3.0214  99.0327 0000914 320.9098 115.2282  1.00271589   203
YAOGAN-50 01            
1 67433U 26006A   26016.17880840  .00000537  00000+0  12658-3 0  9997
2 67433 141.9984 200.7842 0164962 123.7171 237.9391 14.21837795   375
CZ-6A R/B               
1 67434U 26006B   26013.71733058  .00000541  00000+0  30805-4 0  9993
2 67434 142.0438 188.1412 0201725  82.0696 280.2897 14.62247694    24
HULIANWANG DIGUI 18A    
1 67435U 26007A   26019.93315358  .00000086  00000+0  18077-3 0  9994
2 67435  50.0082 269.3558 0008367 291.1711  68.8294 13.92121821   889
HULIANWANG DIGUI 18B    
1 67436U 26007B   26019.93364727  .00000080  00000+0  17625-3 0  9991
2 67436  50.0063 269.3555 0007483 279.1231  80.8822 13.92014599   881
HULIANWANG DIGUI 18C    
1 67437U 26007C   26019.93345185  .00000143  00000+0  22560-3 0  9993
2 67437  50.0031 269.3509 0008139 286.3751  73.6253 13.92055013   886
HULIANWANG DIGUI 18D    
1 67438U 26007D   26019.93415278  .00000118  00000+0  20645-3 0  9999
2 67438  50.0057 269.3577 0008947 285.1040  74.8869 13.91902380   888
HULIANWANG DIGUI 18E    
1 67439U 26007E   26019.93293595  .00000092  00000+0  18570-3 0  9991
2 67439  50.0049 269.3502 0006739 283.9886  76.0263 13.92170860   882
HULIANWANG DIGUI 18F    
1 67440U 26007F   26019.93235372 -.00000103  00000+0  34162-4 0  9992
2 67440  50.0127 269.3580 0007589 292.9425  67.0673 13.92299526   886
HULIANWANG DIGUI 18G    
1 67441U 26007G   26019.93222389  .00000096  00000+0  18778-3 0  9991
2 67441  50.0105 269.3542 0006314 289.4378  70.5839 13.92329183   880
HULIANWANG DIGUI 18H    
1 67442U 26007H   26019.93196162  .00000066  00000+0  16450-3 0  9993
2 67442  50.0093 269.3519 0007471 299.8283  60.1874 13.92385803   881
HULIANWANG DIGUI 18J    
1 67443U 26007J   26019.93123709  .00000116  00000+0  20329-3 0  9997
2 67443  50.0097 269.3481 0006054 298.2199  61.8089 13.92554274   885
CZ-8A R/B               
1 67444U 26007K   26019.90958265 -.00000171  00000+0 -72672-5 0  9991
2 67444  50.0096 268.5646 0092159 104.5838 256.5312 14.13544711   880
ALSAT-3A                
1 67474U 26009A   26019.94077895  .00010332  00000+0  43591-3 0  9995
2 67474  97.4719  94.6958 0011454 250.5422 109.4578 15.23427011   733
CZ-2C R/B               
1 67475U 26009B   26019.93900297  .00006252  00000+0  42254-3 0  9997
2 67475  97.1813  94.0542 0098998 206.3204 153.2975 15.02905892   726
TRANSPORTER-15DT        
1 67483U 25276DT  26017.61582459  .00001158  00000+0  10212-3 0  9999
2 67483  97.5470  93.5003 0008917 314.8090  45.2407 14.98282882    73
